STARLINK-4800           
1 53854U 22114AN  25238.97764282 -.00001755  00000+0 -92197-4 0  9991
2 53854  53.2170  78.4519 0001343  84.4676 275.6470 15.08834278163710
STARLINK-4703           
1 53855U 22114AP  25238.99969957 -.00000198  00000+0  56395-5 0  9990
2 53855  53.2170  87.8633 0001311  88.0084 272.1058 15.08839622163587
STARLINK-4795           
1 53856U 22114AQ  25238.83041934  .00000783  00000+0  67263-4 0  9994
2 53856  53.2174  78.9561 0001213  95.1140 264.9991 15.08846475163697
STARLINK-4809           
1 53857U 22114AR  25238.98400241  .00000107  00000+0  24793-4 0  9992
2 53857  53.2173  87.7678 0001374  90.8462 269.2687 15.08841430163585
STARLINK-4798           
1 53858U 22114AS  25238.97396150 -.00000305  00000+0 -11017-5 0  9993
2 53858  53.2178  78.4318 0001347  92.7714 267.3432 15.08837235163710
STARLINK-4790           
1 53859U 22114AT  25238.98999776 -.00000564  00000+0 -17326-4 0  9993
2 53859  53.2171  82.8163 0001292  90.5585 269.5555 15.08833871163657
STARLINK-4799           
1 53860U 22114AU  25238.96659648  .00004757  00000+0  31685-3 0  9993
2 53860  53.2162  78.3831 0001448  83.2118 276.9039 15.08833936163476
STARLINK-4781           
1 53861U 22114AV  25238.97027498  .00000010  00000+0  18710-4 0  9990
2 53861  53.2179  78.4127 0001331  90.3715 269.7430 15.08837473163719
STARLINK-4788           
1 53863U 22114AX  25238.95921293  .00001154  00000+0  90582-4 0  9993
2 53863  53.2177  78.3405 0001287  89.6895 270.4244 15.08843000163712
STARLINK-4779           
1 53864U 22114AY  25238.98124637 -.00000431  00000+0 -90083-5 0  9990
2 53864  53.2171  77.7666 0001277  90.7504 269.3635 15.08832177163723
STARLINK-4762           
1 53866U 22114BA  25238.77340170 -.00000356  00000+0 -43069-5 0  9999
2 53866  53.2185  59.3442 0001381  97.1964 262.9186 15.08838541163962
STARLINK-4793           
1 53867U 22114BB  25238.96014858  .00001731  00000+0  12685-3 0  9996
2 53867  53.2171  68.3575 0001234 110.2473 249.8652 15.08832045163857
STARLINK-4789           
1 53868U 22114BC  25239.20760610  .00000324  00000+0  38461-4 0  9997
2 53868  53.2185  57.0956 0001322  87.7199 272.3945 15.08841626164034
STARLINK-4810           
1 53869U 22114BD  25238.92329305  .00000922  00000+0  76012-4 0  9996
2 53869  53.2177  68.1317 0001315  90.1395 269.9748 15.08846223163858
STARLINK-4732           
1 53870U 22114BE  25238.88008530  .00000755  00000+0  65540-4 0  9995
2 53870  53.2176  58.5877 0001309  90.0917 270.0225 15.08840501163985
STARLINK-4740           
1 53871U 22114BF  25238.91687823 -.00002685  00000+0 -15076-3 0  9992
2 53871  53.2182  58.1126 0001218  96.2242 263.8889 15.08821257163998
