[{"OBJECT_NAME":"STARLINK-4800","OBJECT_ID":"2022-114AN","EPOCH":"2025-08-26T23:27:48.339648","MEAN_MOTION":15.08834278,"ECCENTRICITY":0.00013436,"INCLINATION":53.217,"RA_OF_ASC_NODE":78.4519,"ARG_OF_PERICENTER":84.4676,"MEAN_ANOMALY":275.647,"EPHEMERIS_TYPE":0,"CLASSIFICATION_TYPE":"U","NORAD_CAT_ID":53854,"ELEMENT_SET_NO":999,"REV_AT_EPOCH":16371,"BSTAR":-9.2197227e-5,"MEAN_MOTION_DOT":-1.755e-5,"MEAN_MOTION_DDOT":0},{"OBJECT_NAME":"STARLINK-4703","OBJECT_ID":"2022-114AP","EPOCH":"2025-08-26T23:59:34.042848","MEAN_MOTION":15.08839622,"ECCENTRICITY":0.00013114,"INCLINATION":53.217,"RA_OF_ASC_NODE":87.8633,"ARG_OF_PERICENTER":88.0084,"MEAN_ANOMALY":272.1058,"EPHEMERIS_TYPE":0,"CLASSIFICATION_TYPE":"U","NORAD_CAT_ID":53855,"ELEMENT_SET_NO":999,"REV_AT_EPOCH":16358,"BSTAR":5.639542e-6,"MEAN_MOTION_DOT":-1.98e-6,"MEAN_MOTION_DDOT":0},{"OBJECT_NAME":"STARLINK-4795","OBJECT_ID":"2022-114AQ","EPOCH":"2025-08-26T19:55:48.230976","MEAN_MOTION":15.08846475,"ECCENTRICITY":0.00012132,"INCLINATION":53.2174,"RA_OF_ASC_NODE":78.9561,"ARG_OF_PERICENTER":95.114,"MEAN_ANOMALY":264.9991,"EPHEMERIS_TYPE":0,"CLASSIFICATION_TYPE":"U","NORAD_CAT_ID":53856,"ELEMENT_SET_NO":999,"REV_AT_EPOCH":16369,"BSTAR":6.7263147e-5,"MEAN_MOTION_DOT":7.83e-6,"MEAN_MOTION_DDOT":0},{"OBJECT_NAME":"STARLINK-4809","OBJECT_ID":"2022-114AR","EPOCH":"2025-08-26T23:36:57.808224","MEAN_MOTION":15.0884143,"ECCENTRICITY":0.00013748,"INCLINATION":53.2173,"RA_OF_ASC_NODE":87.7678,"ARG_OF_PERICENTER":90.8462,"MEAN_ANOMALY":269.2687,"EPHEMERIS_TYPE":0,"CLASSIFICATION_TYPE":"U","NORAD_CAT_ID":53857,"ELEMENT_SET_NO":999,"REV_AT_EPOCH":16358,"BSTAR":2.4792687e-5,"MEAN_MOTION_DOT":1.07e-6,"MEAN_MOTION_DDOT":0},{"OBJECT_NAME":"STARLINK-4798","OBJECT_ID":"2022-114AS","EPOCH":"2025-08-26T23:22:30.273600","MEAN_MOTION":15.08837235,"ECCENTRICITY":0.00013473,"INCLINATION":53.2178,"RA_OF_ASC_NODE":78.4318,"ARG_OF_PERICENTER":92.7714,"MEAN_ANOMALY":267.3432,"EPHEMERIS_TYPE":0,"CLASSIFICATION_TYPE":"U","NORAD_CAT_ID":53858,"ELEMENT_SET_NO":999,"REV_AT_EPOCH":16371,"BSTAR":-1.101676e-6,"MEAN_MOTION_DOT":-3.05e-6,"MEAN_MOTION_DDOT":0},{"OBJECT_NAME":"STARLINK-4790","OBJECT_ID":"2022-114AT","EPOCH":"2025-08-26T23:45:35.806464","MEAN_MOTION":15.08833871,"ECCENTRICITY":0.00012923,"INCLINATION":53.2171,"RA_OF_ASC_NODE":82.8163,"ARG_OF_PERICENTER":90.5585,"MEAN_ANOMALY":269.5555,"EPHEMERIS_TYPE":0,"CLASSIFICATION_TYPE":"U","NORAD_CAT_ID":53859,"ELEMENT_SET_NO":999,"REV_AT_EPOCH":16365,"BSTAR":-1.7325802e-5,"MEAN_MOTION_DOT":-5.64e-6,"MEAN_MOTION_DDOT":0},{"OBJECT_NAME":"STARLINK-4799","OBJECT_ID":"2022-114AU","EPOCH":"2025-08-26T23:11:53.935872","MEAN_MOTION":15.08833936,"ECCENTRICITY":0.00014484,"INCLINATION":53.2162,"RA_OF_ASC_NODE":78.3831,"ARG_OF_PERICENTER":83.2118,"MEAN_ANOMALY":276.9039,"EPHEMERIS_TYPE":0,"CLASSIFICATION_TYPE":"U","NORAD_CAT_ID":53860,"ELEMENT_SET_NO":999,"REV_AT_EPOCH":16347,"BSTAR":0.00031684928,"MEAN_MOTION_DOT":4.757e-5,"MEAN_MOTION_DDOT":0},{"OBJECT_NAME":"STARLINK-4781","OBJECT_ID":"2022-114AV","EPOCH":"2025-08-26T23:17:11.758272","MEAN_MOTION":15.08837473,"ECCENTRICITY":0.00013318,"INCLINATION":53.2179,"RA_OF_ASC_NODE":78.4127,"ARG_OF_PERICENTER":90.3715,"MEAN_ANOMALY":269.743,"EPHEMERIS_TYPE":0,"CLASSIFICATION_TYPE":"U","NORAD_CAT_ID":53861,"ELEMENT_SET_NO":999,"REV_AT_EPOCH":16371,"BSTAR":1.8709941e-5,"MEAN_MOTION_DOT":1.0e-7,"MEAN_MOTION_DDOT":0},{"OBJECT_NAME":"STARLINK-4788","OBJECT_ID":"2022-114AX","EPOCH":"2025-08-26T23:01:15.997152","MEAN_MOTION":15.08843,"ECCENTRICITY":0.00012879,"INCLINATION":53.2177,"RA_OF_ASC_NODE":78.3405,"ARG_OF_PERICENTER":89.6895,"MEAN_ANOMALY":270.4244,"EPHEMERIS_TYPE":0,"CLASSIFICATION_TYPE":"U","NORAD_CAT_ID":53863,"ELEMENT_SET_NO":999,"REV_AT_EPOCH":16371,"BSTAR":9.0581923e-5,"MEAN_MOTION_DOT":1.154e-5,"MEAN_MOTION_DDOT":0},{"OBJECT_NAME":"STARLINK-4779","OBJECT_ID":"2022-114AY","EPOCH":"2025-08-26T23:32:59.686368","MEAN_MOTION":15.08832177,"ECCENTRICITY":0.00012779,"INCLINATION":53.2171,"RA_OF_ASC_NODE":77.7666,"ARG_OF_PERICENTER":90.7504,"MEAN_ANOMALY":269.3635,"EPHEMERIS_TYPE":0,"CLASSIFICATION_TYPE":"U","NORAD_CAT_ID":53864,"ELEMENT_SET_NO":999,"REV_AT_EPOCH":16372,"BSTAR":-9.008312e-6,"MEAN_MOTION_DOT":-4.31e-6,"MEAN_MOTION_DDOT":0},{"OBJECT_NAME":"STARLINK-4762","OBJECT_ID":"2022-114BA","EPOCH":"2025-08-26T18:33:41.906880","MEAN_MOTION":15.08838541,"ECCENTRICITY":0.00013816,"INCLINATION":53.2185,"RA_OF_ASC_NODE":59.3442,"ARG_OF_PERICENTER":97.1964,"MEAN_ANOMALY":262.9186,"EPHEMERIS_TYPE":0,"CLASSIFICATION_TYPE":"U","NORAD_CAT_ID":53866,"ELEMENT_SET_NO":999,"REV_AT_EPOCH":16396,"BSTAR":-4.306928e-6,"MEAN_MOTION_DOT":-3.56e-6,"MEAN_MOTION_DDOT":0},{"OBJECT_NAME":"STARLINK-4793","OBJECT_ID":"2022-114BB","EPOCH":"2025-08-26T23:02:36.837312","MEAN_MOTION":15.08832045,"ECCENTRICITY":0.00012343,"INCLINATION":53.2171,"RA_OF_ASC_NODE":68.3575,"ARG_OF_PERICENTER":110.2473,"MEAN_ANOMALY":249.8652,"EPHEMERIS_TYPE":0,"CLASSIFICATION_TYPE":"U","NORAD_CAT_ID":53867,"ELEMENT_SET_NO":999,"REV_AT_EPOCH":16385,"BSTAR":0.00012685265,"MEAN_MOTION_DOT":1.731e-5,"MEAN_MOTION_DDOT":0},{"OBJECT_NAME":"STARLINK-4789","OBJECT_ID":"2022-114BC","EPOCH":"2025-08-27T04:58:57.167040","MEAN_MOTION":15.08841626,"ECCENTRICITY":0.00013226,"INCLINATION":53.2185,"RA_OF_ASC_NODE":57.0956,"ARG_OF_PERICENTER":87.7199,"MEAN_ANOMALY":272.3945,"EPHEMERIS_TYPE":0,"CLASSIFICATION_TYPE":"U","NORAD_CAT_ID":53868,"ELEMENT_SET_NO":999,"REV_AT_EPOCH":16403,"BSTAR":3.8461498e-5,"MEAN_MOTION_DOT":3.24e-6,"MEAN_MOTION_DDOT":0},{"OBJECT_NAME":"STARLINK-4810","OBJECT_ID":"2022-114BD","EPOCH":"2025-08-26T22:09:32.519520","MEAN_MOTION":15.08846223,"ECCENTRICITY":0.00013154,"INCLINATION":53.2177,"RA_OF_ASC_NODE":68.1317,"ARG_OF_PERICENTER":90.1395,"MEAN_ANOMALY":269.9748,"EPHEMERIS_TYPE":0,"CLASSIFICATION_TYPE":"U","NORAD_CAT_ID":53869,"ELEMENT_SET_NO":999,"REV_AT_EPOCH":16385,"BSTAR":7.6012068e-5,"MEAN_MOTION_DOT":9.22e-6,"MEAN_MOTION_DDOT":0},{"OBJECT_NAME":"STARLINK-4732","OBJECT_ID":"2022-114BE","EPOCH":"2025-08-26T21:07:19.369920","MEAN_MOTION":15.08840501,"ECCENTRICITY":0.00013091,"INCLINATION":53.2176,"RA_OF_ASC_NODE":58.5877,"ARG_OF_PERICENTER":90.0917,"MEAN_ANOMALY":270.0225,"EPHEMERIS_TYPE":0,"CLASSIFICATION_TYPE":"U","NORAD_CAT_ID":53870,"ELEMENT_SET_NO":999,"REV_AT_EPOCH":16398,"BSTAR":6.5540076e-5,"MEAN_MOTION_DOT":7.55e-6,"MEAN_MOTION_DDOT":0},{"OBJECT_NAME":"STARLINK-4740","OBJECT_ID":"2022-114BF","EPOCH":"2025-08-26T22:00:18.279072","MEAN_MOTION":15.08821257,"ECCENTRICITY":0.00012187,"INCLINATION":53.2182,"RA_OF_ASC_NODE":58.1126,"ARG_OF_PERICENTER":96.2242,"MEAN_ANOMALY":263.8889,"EPHEMERIS_TYPE":0,"CLASSIFICATION_TYPE":"U","NORAD_CAT_ID":53871,"ELEMENT_SET_NO":999,"REV_AT_EPOCH":16399,"BSTAR":-0.00015075553,"MEAN_MOTION_DOT":-2.685e-5,"MEAN_MOTION_DDOT":0}]
